ONEWEB-0564             
1 55801U 23029F   24123.53662118  .00000042  00000+0  70637-4 0  9991
2 55801  87.9202  68.7974 0002169  69.9927 290.1440 13.20770615 58768
ONEWEB-0638             
1 55802U 23029G   24123.90508719 -.00000141  00000+0 -41531-3 0  9991
2 55802  87.8941  84.0174 0001265  83.8787 276.2486 13.14501943 58254
ONEWEB-0639             
1 55803U 23029H   24123.88102628  .00000095  00000+0  20486-3 0  9990
2 55803  87.9117  99.2760 0002277 126.3518 233.7826 13.19724376 57335
ONEWEB-0641             
1 55805U 23029K   24123.42138892  .00000188  00000+0  43840-3 0  9996
2 55805  87.9111  99.3511 0002050  95.6732 264.4634 13.19724549 56598
ONEWEB-0642             
1 55806U 23029L   24123.87155746  .00000015  00000+0  57678-5 0  9998
2 55806  87.9121  99.2817 0002420 114.7600 245.3785 13.19726331 57335
ONEWEB-0643             
1 55807U 23029M   24123.58000206  .00000239  00000+0  61009-3 0  9996
2 55807  87.8937  84.0557 0002761 101.5299 258.6141 13.14503673 57496
ONEWEB-0644             
1 55808U 23029N   24123.86680086  .00000050  00000+0  93689-4 0  9999
2 55808  87.9122  99.2781 0002215 104.4796 255.6582 13.19722919 57339
